ONEWEB-0229             
1 48779U 21045N   24211.42743155  .00000194  00000+0  48006-3 0  9992
2 48779  87.9016  36.0580 0001787  83.4477 276.6857 13.15550006153989
ONEWEB-0228             
1 48780U 21045P   24211.45728204  .00000019  00000+0  17414-4 0  9991
2 48780  87.9016  36.0325 0001729  84.5976 275.5351 13.15071997153906
ONEWEB-0232             
1 48781U 21045Q   24211.89171944  .00000183  00000+0  45267-3 0  9991
2 48781  87.9011  35.9592 0001720  84.6171 275.5156 13.15548378155407
ONEWEB-0231             
1 48782U 21045R   24211.48923988  .00000037  00000+0  63266-4 0  9998
2 48782  87.9026  36.0757 0001632  80.0763 280.0551 13.15548621153924
ONEWEB-0234             
1 48783U 21045S   24211.88933318  .00000210  00000+0  52279-3 0  9995
2 48783  87.9020  35.9518 0002152 126.9631 233.1696 13.15549319155245
ONEWEB-0238             
1 48784U 21045T   24211.46310512 -.00000034  00000+0 -12352-3 0  9999
2 48784  87.9019  36.0539 0001812  93.7596 266.3742 13.15549548153952
ONEWEB-0240             
1 48785U 21045U   24211.01625960 -.00000094  00000+0 -28404-3 0  9998
2 48785  87.9018  36.1106 0001391  84.8139 275.3150 13.15548784153920
ONEWEB-0246             
1 48786U 21045V   24211.46705144 -.00000080  00000+0 -24787-3 0  9996
2 48786  87.9017  36.0256 0001796  82.9485 277.1849 13.15544119153852
