<?xml version="1.0" encoding="UTF-8"?>
<ndm xmlns:xsi="http://www.w3.org/2001/XMLSchema-instance" xsi:noNamespaceSchemaLocation="https://sanaregistry.org/r/ndmxml_unqualified/ndmxml-2.0.0-master-2.0.xsd">
<omm id="CCSDS_OMM_VERS" version="2.0">
<header><CREATION_DATE/><ORIGINATOR/></header><body><segment><metadata><OBJECT_NAME>ONEWEB-0229</OBJECT_NAME><OBJECT_ID>2021-045N</OBJECT_ID><CENTER_NAME>EARTH</CENTER_NAME><REF_FRAME>TEME</REF_FRAME><TIME_SYSTEM>UTC</TIME_SYSTEM><MEAN_ELEMENT_THEORY>SGP4</MEAN_ELEMENT_THEORY></metadata><data><meanElements><EPOCH>2024-07-29T10:15:30.085920</EPOCH><MEAN_MOTION>13.15550006</MEAN_MOTION><ECCENTRICITY>.0001787</ECCENTRICITY><INCLINATION>87.9016</INCLINATION><RA_OF_ASC_NODE>36.0580</RA_OF_ASC_NODE><ARG_OF_PERICENTER>83.4477</ARG_OF_PERICENTER><MEAN_ANOMALY>276.6857</MEAN_ANOMALY></meanElements><tleParameters><EPHEMERIS_TYPE>0</EPHEMERIS_TYPE><CLASSIFICATION_TYPE>U</CLASSIFICATION_TYPE><NORAD_CAT_ID>48779</NORAD_CAT_ID><ELEMENT_SET_NO>999</ELEMENT_SET_NO><REV_AT_EPOCH>15398</REV_AT_EPOCH><BSTAR>.48006E-3</BSTAR><MEAN_MOTION_DOT>.194E-5</MEAN_MOTION_DOT><MEAN_MOTION_DDOT>0</MEAN_MOTION_DDOT></tleParameters></data></segment></body></omm>
<omm id="CCSDS_OMM_VERS" version="2.0">
<header><CREATION_DATE/><ORIGINATOR/></header><body><segment><metadata><OBJECT_NAME>ONEWEB-0228</OBJECT_NAME><OBJECT_ID>2021-045P</OBJECT_ID><CENTER_NAME>EARTH</CENTER_NAME><REF_FRAME>TEME</REF_FRAME><TIME_SYSTEM>UTC</TIME_SYSTEM><MEAN_ELEMENT_THEORY>SGP4</MEAN_ELEMENT_THEORY></metadata><data><meanElements><EPOCH>2024-07-29T10:58:29.168256</EPOCH><MEAN_MOTION>13.15071997</MEAN_MOTION><ECCENTRICITY>.0001729</ECCENTRICITY><INCLINATION>87.9016</INCLINATION><RA_OF_ASC_NODE>36.0325</RA_OF_ASC_NODE><ARG_OF_PERICENTER>84.5976</ARG_OF_PERICENTER><MEAN_ANOMALY>275.5351</MEAN_ANOMALY></meanElements><tleParameters><EPHEMERIS_TYPE>0</EPHEMERIS_TYPE><CLASSIFICATION_TYPE>U</CLASSIFICATION_TYPE><NORAD_CAT_ID>48780</NORAD_CAT_ID><ELEMENT_SET_NO>999</ELEMENT_SET_NO><REV_AT_EPOCH>15390</REV_AT_EPOCH><BSTAR>.17414E-4</BSTAR><MEAN_MOTION_DOT>.19E-6</MEAN_MOTION_DOT><MEAN_MOTION_DDOT>0</MEAN_MOTION_DDOT></tleParameters></data></segment></body></omm>
<omm id="CCSDS_OMM_VERS" version="2.0">
<header><CREATION_DATE/><ORIGINATOR/></header><body><segment><metadata><OBJECT_NAME>ONEWEB-0232</OBJECT_NAME><OBJECT_ID>2021-045Q</OBJECT_ID><CENTER_NAME>EARTH</CENTER_NAME><REF_FRAME>TEME</REF_FRAME><TIME_SYSTEM>UTC</TIME_SYSTEM><MEAN_ELEMENT_THEORY>SGP4</MEAN_ELEMENT_THEORY></metadata><data><meanElements><EPOCH>2024-07-29T21:24:04.559616</EPOCH><MEAN_MOTION>13.15548378</MEAN_MOTION><ECCENTRICITY>.000172</ECCENTRICITY><INCLINATION>87.9011</INCLINATION><RA_OF_ASC_NODE>35.9592</RA_OF_ASC_NODE><ARG_OF_PERICENTER>84.6171</ARG_OF_PERICENTER><MEAN_ANOMALY>275.5156</MEAN_ANOMALY></meanElements><tleParameters><EPHEMERIS_TYPE>0</EPHEMERIS_TYPE><CLASSIFICATION_TYPE>U</CLASSIFICATION_TYPE><NORAD_CAT_ID>48781</NORAD_CAT_ID><ELEMENT_SET_NO>999</ELEMENT_SET_NO><REV_AT_EPOCH>15540</REV_AT_EPOCH><BSTAR>.45267E-3</BSTAR><MEAN_MOTION_DOT>.183E-5</MEAN_MOTION_DOT><MEAN_MOTION_DDOT>0</MEAN_MOTION_DDOT></tleParameters></data></segment></body></omm>
<omm id="CCSDS_OMM_VERS" version="2.0">
<header><CREATION_DATE/><ORIGINATOR/></header><body><segment><metadata><OBJECT_NAME>ONEWEB-0231</OBJECT_NAME><OBJECT_ID>2021-045R</OBJECT_ID><CENTER_NAME>EARTH</CENTER_NAME><REF_FRAME>TEME</REF_FRAME><TIME_SYSTEM>UTC</TIME_SYSTEM><MEAN_ELEMENT_THEORY>SGP4</MEAN_ELEMENT_THEORY></metadata><data><meanElements><EPOCH>2024-07-29T11:44:30.325632</EPOCH><MEAN_MOTION>13.15548621</MEAN_MOTION><ECCENTRICITY>.0001632</ECCENTRICITY><INCLINATION>87.9026</INCLINATION><RA_OF_ASC_NODE>36.0757</RA_OF_ASC_NODE><ARG_OF_PERICENTER>80.0763</ARG_OF_PERICENTER><MEAN_ANOMALY>280.0551</MEAN_ANOMALY></meanElements><tleParameters><EPHEMERIS_TYPE>0</EPHEMERIS_TYPE><CLASSIFICATION_TYPE>U</CLASSIFICATION_TYPE><NORAD_CAT_ID>48782</NORAD_CAT_ID><ELEMENT_SET_NO>999</ELEMENT_SET_NO><REV_AT_EPOCH>15392</REV_AT_EPOCH><BSTAR>.63266E-4</BSTAR><MEAN_MOTION_DOT>.37E-6</MEAN_MOTION_DOT><MEAN_MOTION_DDOT>0</MEAN_MOTION_DDOT></tleParameters></data></segment></body></omm>
<omm id="CCSDS_OMM_VERS" version="2.0">
<header><CREATION_DATE/><ORIGINATOR/></header><body><segment><metadata><OBJECT_NAME>ONEWEB-0234</OBJECT_NAME><OBJECT_ID>2021-045S</OBJECT_ID><CENTER_NAME>EARTH</CENTER_NAME><REF_FRAME>TEME</REF_FRAME><TIME_SYSTEM>UTC</TIME_SYSTEM><MEAN_ELEMENT_THEORY>SGP4</MEAN_ELEMENT_THEORY></metadata><data><meanElements><EPOCH>2024-07-29T21:20:38.386752</EPOCH><MEAN_MOTION>13.15549319</MEAN_MOTION><ECCENTRICITY>.0002152</ECCENTRICITY><INCLINATION>87.9020</INCLINATION><RA_OF_ASC_NODE>35.9518</RA_OF_ASC_NODE><ARG_OF_PERICENTER>126.9631</ARG_OF_PERICENTER><MEAN_ANOMALY>233.1696</MEAN_ANOMALY></meanElements><tleParameters><EPHEMERIS_TYPE>0</EPHEMERIS_TYPE><CLASSIFICATION_TYPE>U</CLASSIFICATION_TYPE><NORAD_CAT_ID>48783</NORAD_CAT_ID><ELEMENT_SET_NO>999</ELEMENT_SET_NO><REV_AT_EPOCH>15524</REV_AT_EPOCH><BSTAR>.52279E-3</BSTAR><MEAN_MOTION_DOT>.21E-5</MEAN_MOTION_DOT><MEAN_MOTION_DDOT>0</MEAN_MOTION_DDOT></tleParameters></data></segment></body></omm>
<omm id="CCSDS_OMM_VERS" version="2.0">
<header><CREATION_DATE/><ORIGINATOR/></header><body><segment><metadata><OBJECT_NAME>ONEWEB-0238</OBJECT_NAME><OBJECT_ID>2021-045T</OBJECT_ID><CENTER_NAME>EARTH</CENTER_NAME><REF_FRAME>TEME</REF_FRAME><TIME_SYSTEM>UTC</TIME_SYSTEM><MEAN_ELEMENT_THEORY>SGP4</MEAN_ELEMENT_THEORY></metadata><data><meanElements><EPOCH>2024-07-29T11:06:52.282368</EPOCH><MEAN_MOTION>13.15549548</MEAN_MOTION><ECCENTRICITY>.0001812</ECCENTRICITY><INCLINATION>87.9019</INCLINATION><RA_OF_ASC_NODE>36.0539</RA_OF_ASC_NODE><ARG_OF_PERICENTER>93.7596</ARG_OF_PERICENTER><MEAN_ANOMALY>266.3742</MEAN_ANOMALY></meanElements><tleParameters><EPHEMERIS_TYPE>0</EPHEMERIS_TYPE><CLASSIFICATION_TYPE>U</CLASSIFICATION_TYPE><NORAD_CAT_ID>48784</NORAD_CAT_ID><ELEMENT_SET_NO>999</ELEMENT_SET_NO><REV_AT_EPOCH>15395</REV_AT_EPOCH><BSTAR>-.12352E-3</BSTAR><MEAN_MOTION_DOT>-.34E-6</MEAN_MOTION_DOT><MEAN_MOTION_DDOT>0</MEAN_MOTION_DDOT></tleParameters></data></segment></body></omm>
<omm id="CCSDS_OMM_VERS" version="2.0">
<header><CREATION_DATE/><ORIGINATOR/></header><body><segment><metadata><OBJECT_NAME>ONEWEB-0240</OBJECT_NAME><OBJECT_ID>2021-045U</OBJECT_ID><CENTER_NAME>EARTH</CENTER_NAME><REF_FRAME>TEME</REF_FRAME><TIME_SYSTEM>UTC</TIME_SYSTEM><MEAN_ELEMENT_THEORY>SGP4</MEAN_ELEMENT_THEORY></metadata><data><meanElements><EPOCH>2024-07-29T00:23:24.829440</EPOCH><MEAN_MOTION>13.15548784</MEAN_MOTION><ECCENTRICITY>.0001391</ECCENTRICITY><INCLINATION>87.9018</INCLINATION><RA_OF_ASC_NODE>36.1106</RA_OF_ASC_NODE><ARG_OF_PERICENTER>84.8139</ARG_OF_PERICENTER><MEAN_ANOMALY>275.3150</MEAN_ANOMALY></meanElements><tleParameters><EPHEMERIS_TYPE>0</EPHEMERIS_TYPE><CLASSIFICATION_TYPE>U</CLASSIFICATION_TYPE><NORAD_CAT_ID>48785</NORAD_CAT_ID><ELEMENT_SET_NO>999</ELEMENT_SET_NO><REV_AT_EPOCH>15392</REV_AT_EPOCH><BSTAR>-.28404E-3</BSTAR><MEAN_MOTION_DOT>-.94E-6</MEAN_MOTION_DOT><MEAN_MOTION_DDOT>0</MEAN_MOTION_DDOT></tleParameters></data></segment></body></omm>
<omm id="CCSDS_OMM_VERS" version="2.0">
<header><CREATION_DATE/><ORIGINATOR/></header><body><segment><metadata><OBJECT_NAME>ONEWEB-0246</OBJECT_NAME><OBJECT_ID>2021-045V</OBJECT_ID><CENTER_NAME>EARTH</CENTER_NAME><REF_FRAME>TEME</REF_FRAME><TIME_SYSTEM>UTC</TIME_SYSTEM><MEAN_ELEMENT_THEORY>SGP4</MEAN_ELEMENT_THEORY></metadata><data><meanElements><EPOCH>2024-07-29T11:12:33.244416</EPOCH><MEAN_MOTION>13.15544119</MEAN_MOTION><ECCENTRICITY>.0001796</ECCENTRICITY><INCLINATION>87.9017</INCLINATION><RA_OF_ASC_NODE>36.0256</RA_OF_ASC_NODE><ARG_OF_PERICENTER>82.9485</ARG_OF_PERICENTER><MEAN_ANOMALY>277.1849</MEAN_ANOMALY></meanElements><tleParameters><EPHEMERIS_TYPE>0</EPHEMERIS_TYPE><CLASSIFICATION_TYPE>U</CLASSIFICATION_TYPE><NORAD_CAT_ID>48786</NORAD_CAT_ID><ELEMENT_SET_NO>999</ELEMENT_SET_NO><REV_AT_EPOCH>15385</REV_AT_EPOCH><BSTAR>-.24787E-3</BSTAR><MEAN_MOTION_DOT>-.8E-6</MEAN_MOTION_DOT><MEAN_MOTION_DDOT>0</MEAN_MOTION_DDOT></tleParameters></data></segment></body></omm>

</ndm>
